CCSDS_OMM_VERS,COMMENT,CREATION_DATE,ORIGINATOR,OBJECT_NAME,OBJECT_ID,CENTER_NAME,REF_FRAME,TIME_SYSTEM,MEAN_ELEMENT_THEORY,EPOCH,MEAN_MOTION,ECCENTRICITY,INCLINATION,RA_OF_ASC_NODE,ARG_OF_PERICENTER,MEAN_ANOMALY,EPHEMERIS_TYPE,CLASSIFICATION_TYPE,NORAD_CAT_ID,ELEMENT_SET_NO,REV_AT_EPOCH,BSTAR,MEAN_MOTION_DOT,MEAN_MOTION_DDOT,SEMIMAJOR_AXIS,PERIOD,APOAPSIS,PERIAPSIS,OBJECT_TYPE,RCS_SIZE,COUNTRY_CODE,LAUNCH_DATE,SITE,DECAY_DATE,FILE,GP_ID,TLE_LINE0,TLE_LINE1,TLE_LINE2
2,GENERATED VIA SPACE-TRACK.ORG API,2023-02-20T10:36:12,18 SPCS,STARLINK-1098,2020-001D,EARTH,TEME,UTC,SGP4,2023-02-20T00:29:30.132096,15.06475532,0.0001131,53.0538,306.0754,115.0288,245.0818,0,U,44917,999,17199,0.0015225,0.00022515,0,6925.117,95.587,547.765,546.199,PAYLOAD,LARGE,US,2020-01-07,AFETR,,3814418,226106071,0 STARLINK-1098,1 44917U 20001D   23051.02048764  .00022515  00000-0  15225-2 0  9992,2 44917  53.0538 306.0754 0001131 115.0288 245.0818 15.06475532171990
2,GENERATED VIA SPACE-TRACK.ORG API,2023-02-20T18:24:59,18 SPCS,STARLINK-1098,2020-001D,EARTH,TEME,UTC,SGP4,2023-02-20T13:13:49.413504,15.06387819,0.0001792,53.0534,303.6923,119.8334,240.2833,0,U,44917,999,17207,-0.0011771,-0.00017766,0,6925.386,95.593,548.492,546.01,PAYLOAD,LARGE,US,2020-01-07,AFETR,,3815761,226154033,0 STARLINK-1098,1 44917U 20001D   23051.55126636 -.00017766  00000-0 -11771-2 0  9991,2 44917  53.0534 303.6923 0001792 119.8334 240.2833 15.06387819172078
2,GENERATED VIA SPACE-TRACK.ORG API,2023-02-20T16:16:12,18 SPCS,STARLINK-1098,2020-001D,EARTH,TEME,UTC,SGP4,2023-02-20T13:13:49.413504,15.06387819,0.0001792,53.0534,303.6923,119.8334,240.2833,0,U,44917,999,17207,-0.0011771,-0.00017766,0,6925.386,95.593,548.492,546.01,PAYLOAD,LARGE,US,2020-01-07,AFETR,,3815496,226128370,0 STARLINK-1098,1 44917U 20001D   23051.55126636 -.00017766  00000-0 -11771-2 0  9991,2 44917  53.0534 303.6923 0001792 119.8334 240.2833 15.06387819172078
2,GENERATED VIA SPACE-TRACK.ORG API,2023-02-21T01:56:13,18 SPCS,STARLINK-1098,2020-001D,EARTH,TEME,UTC,SGP4,2023-02-20T22:47:04.735968,15.06360573,0.0001237,53.0532,301.9056,84.6224,275.4906,0,U,44917,999,17213,0.0009719,0.00014209,0,6925.469,95.595,548.191,546.478,PAYLOAD,LARGE,US,2020-01-07,AFETR,,3816957,226185421,0 STARLINK-1098,1 44917U 20001D   23051.94936037  .00014209  00000-0  97190-3 0  9995,2 44917  53.0532 301.9056 0001237  84.6224 275.4906 15.06360573172131
2,GENERATED VIA SPACE-TRACK.ORG API,2023-02-21T18:44:19,18 SPCS,STARLINK-1098,2020-001D,EARTH,TEME,UTC,SGP4,2023-02-21T09:55:52.106592,15.06378706,0.0001247,53.053,299.8206,81.8188,278.2943,0,U,44917,999,17220,0.0016802,0.00024819,0,6925.414,95.593,548.142,546.415,PAYLOAD,LARGE,US,2020-01-07,AFETR,,3819803,226271237,0 STARLINK-1098,1 44917U 20001D   23052.41379753  .00024819  00000-0  16802-2 0  9992,2 44917  53.0530 299.8206 0001247  81.8188 278.2943 15.06378706172207
2,GENERATED VIA SPACE-TRACK.ORG API,2023-02-22T02:57:45,18 SPCS,STARLINK-1098,2020-001D,EARTH,TEME,UTC,SGP4,2023-02-21T21:04:38.871552,15.06401175,0.0001259,53.0528,297.7358,82.6123,277.5009,0,U,44917,999,17227,0.0017058,0.00025218,0,6925.345,95.592,548.082,546.338,PAYLOAD,LARGE,US,2020-01-07,AFETR,,3821329,226328409,0 STARLINK-1098,1 44917U 20001D   23052.87822768  .00025218  00000-0  17058-2 0  9999,2 44917  53.0528 297.7358 0001259  82.6123 277.5009 15.06401175172279
2,GENERATED VIA SPACE-TRACK.ORG API,2023-02-22T20:37:33,18 SPCS,STARLINK-1098,2020-001D,EARTH,TEME,UTC,SGP4,2023-02-22T01:51:15.875712,15.064106,0.000127,53.0529,296.8424,80.2591,279.8541,0,U,44917,999,17230,0.0016933,0.00025037,0,6925.316,95.591,548.061,546.302,PAYLOAD,LARGE,US,2020-01-07,AFETR,,3824148,226417543,0 STARLINK-1098,1 44917U 20001D   23053.07726708  .00025037  00000-0  16933-2 0  9999,2 44917  53.0529 296.8424 0001270  80.2591 279.8541 15.06410600172303
2,GENERATED VIA SPACE-TRACK.ORG API,2023-02-22T06:56:14,18 SPCS,STARLINK-1098,2020-001D,EARTH,TEME,UTC,SGP4,2023-02-22T01:51:15.875712,15.064106,0.000127,53.0529,296.8424,80.2591,279.8541,0,U,44917,999,17230,0.0016933,0.00025037,0,6925.316,95.591,548.061,546.302,PAYLOAD,LARGE,US,2020-01-07,AFETR,,3821844,226346319,0 STARLINK-1098,1 44917U 20001D   23053.07726708  .00025037  00000-0  16933-2 0  9999,2 44917  53.0529 296.8424 0001270  80.2591 279.8541 15.06410600172303
2,GENERATED VIA SPACE-TRACK.ORG API,2023-02-22T22:56:14,18 SPCS,STARLINK-1098,2020-001D,EARTH,TEME,UTC,SGP4,2023-02-22T16:11:08.246400,15.0638175,0.0001343,53.0529,294.1611,89.7088,270.4054,0,U,44917,999,17239,0.00081277,0.00011839,0,6925.404,95.593,548.2,546.339,PAYLOAD,LARGE,US,2020-01-07,AFETR,,3824711,226437644,0 STARLINK-1098,1 44917U 20001D   23053.67440100  .00011839  00000-0  81277-3 0  9993,2 44917  53.0529 294.1611 0001343  89.7088 270.4054 15.06381750172396
2,GENERATED VIA SPACE-TRACK.ORG API,2023-02-23T03:18:46,18 SPCS,STARLINK-1098,2020-001D,EARTH,TEME,UTC,SGP4,2023-02-22T22:33:18.183456,15.06372444,0.000125,53.0528,292.97,96.634,263.4791,0,U,44917,999,17243,0.0010999,0.00016127,0,6925.433,95.594,548.164,546.432,PAYLOAD,LARGE,US,2020-01-07,AFETR,,3825529,226471304,0 STARLINK-1098,1 44917U 20001D   23053.93979379  .00016127  00000-0  10999-2 0  9994,2 44917  53.0528 292.9700 0001250  96.6340 263.4791 15.06372444172430
2,GENERATED VIA SPACE-TRACK.ORG API,2023-02-23T18:48:24,18 SPCS,STARLINK-1098,2020-001D,EARTH,TEME,UTC,SGP4,2023-02-23T01:44:23.125632,15.06374882,0.0001085,53.0531,292.3739,93.7331,266.3782,0,U,44917,999,17245,0.0012489,0.00018357,0,6925.426,95.594,548.042,546.539,PAYLOAD,LARGE,US,2020-01-07,AFETR,,3828819,226563625,0 STARLINK-1098,1 44917U 20001D   23054.07248988  .00018357  00000-0  12489-2 0  9998,2 44917  53.0531 292.3739 0001085  93.7331 266.3782 15.06374882172456
2,GENERATED VIA SPACE-TRACK.ORG API,2023-02-23T09:16:12,18 SPCS,STARLINK-1098,2020-001D,EARTH,TEME,UTC,SGP4,2023-02-23T01:44:23.125632,15.06374882,0.0001085,53.0531,292.3739,93.7331,266.3782,0,U,44917,999,17245,0.0012489,0.00018357,0,6925.426,95.594,548.042,546.539,PAYLOAD,LARGE,US,2020-01-07,AFETR,,3826901,226504332,0 STARLINK-1098,1 44917U 20001D   23054.07248988  .00018357  00000-0  12489-2 0  9998,2 44917  53.0531 292.3739 0001085  93.7331 266.3782 15.06374882172456
2,GENERATED VIA SPACE-TRACK.ORG API,2023-02-24T05:58:46,18 SPCS,STARLINK-1098,2020-001D,EARTH,TEME,UTC,SGP4,2023-02-23T22:26:24.193536,15.06403487,0.000113,53.054,288.501,97.0907,263.021,0,U,44917,999,17258,0.0010892,0.00015981,0,6925.338,95.592,547.985,546.42,PAYLOAD,LARGE,US,2020-01-07,AFETR,,3830532,226626103,0 STARLINK-1098,1 44917U 20001D   23054.93500224  .00015981  00000-0  10892-2 0  9993,2 44917  53.0540 288.5010 0001130  97.0907 263.0210 15.06403487172580
2,GENERATED VIA SPACE-TRACK.ORG API,2023-02-24T18:36:13,18 SPCS,STARLINK-1098,2020-001D,EARTH,TEME,UTC,SGP4,2023-02-24T15:57:20.427264,15.06401967,0.0001177,53.0524,285.2254,99.8705,260.2416,0,U,44917,999,17269,0.00050527,7.253e-05,0,6925.343,95.592,548.023,546.392,PAYLOAD,LARGE,US,2020-01-07,AFETR,,3833004,226713138,0 STARLINK-1098,1 44917U 20001D   23055.66481976  .00007253  00000-0  50527-3 0  9999,2 44917  53.0524 285.2254 0001177  99.8705 260.2416 15.06401967172693
2,GENERATED VIA SPACE-TRACK.ORG API,2023-02-25T05:29:33,18 SPCS,STARLINK-1098,2020-001D,EARTH,TEME,UTC,SGP4,2023-02-24T22:19:30.043776,15.06392021,0.0001179,53.0529,284.0339,98.9653,261.1469,0,U,44917,999,17273,6.828e-05,7.36e-06,0,6925.373,95.593,548.055,546.422,PAYLOAD,LARGE,US,2020-01-07,AFETR,,3835059,226775104,0 STARLINK-1098,1 44917U 20001D   23055.93020884  .00000736  00000-0  68280-4 0  9991,2 44917  53.0529 284.0339 0001179  98.9653 261.1469 15.06392021172736
2,GENERATED VIA SPACE-TRACK.ORG API,2023-02-25T17:54:42,18 SPCS,STARLINK-1098,2020-001D,EARTH,TEME,UTC,SGP4,2023-02-25T01:30:34.809696,15.06392687,0.0001209,53.0529,283.4377,96.6324,263.4802,0,U,44917,999,17275,3.7412e-05,2.76e-06,0,6925.371,95.593,548.073,546.399,PAYLOAD,LARGE,US,2020-01-07,AFETR,,3837605,226852896,0 STARLINK-1098,1 44917U 20001D   23056.06290289  .00000276  00000-0  37412-4 0  9996,2 44917  53.0529 283.4377 0001209  96.6324 263.4802 15.06392687172751
2,GENERATED VIA SPACE-TRACK.ORG API,2023-02-25T08:26:12,18 SPCS,STARLINK-1098,2020-001D,EARTH,TEME,UTC,SGP4,2023-02-25T01:30:34.809696,15.06392687,0.0001209,53.0529,283.4377,96.6324,263.4802,0,U,44917,999,17275,3.7412e-05,2.76e-06,0,6925.371,95.593,548.073,546.399,PAYLOAD,LARGE,US,2020-01-07,AFETR,,3835910,226801672,0 STARLINK-1098,1 44917U 20001D   23056.06290289  .00000276  00000-0  37412-4 0  9996,2 44917  53.0529 283.4377 0001209  96.6324 263.4802 15.06392687172751
2,GENERATED VIA SPACE-TRACK.ORG API,2023-02-25T22:56:14,18 SPCS,STARLINK-1098,2020-001D,EARTH,TEME,UTC,SGP4,2023-02-25T17:25:58.137312,15.06404949,0.0001184,53.0529,280.4593,97.9178,262.1945,0,U,44917,999,17285,0.0002517,3.47e-05,0,6925.333,95.592,548.018,546.378,PAYLOAD,LARGE,US,2020-01-07,AFETR,,3838260,226875142,0 STARLINK-1098,1 44917U 20001D   23056.72636733  .00003470  00000-0  25170-3 0  9993,2 44917  53.0529 280.4593 0001184  97.9178 262.1945 15.06404949172851
2,GENERATED VIA SPACE-TRACK.ORG API,2023-02-26T04:49:34,18 SPCS,STARLINK-1098,2020-001D,EARTH,TEME,UTC,SGP4,2023-02-25T20:37:02.745120,15.06407952,0.0001152,53.053,279.8634,96.6487,263.4634,0,U,44917,999,17287,0.00030281,4.233e-05,0,6925.324,95.592,547.987,546.391,PAYLOAD,LARGE,US,2020-01-07,AFETR,,3839003,226910471,0 STARLINK-1098,1 44917U 20001D   23056.85905955  .00004233  00000-0  30281-3 0  9999,2 44917  53.0530 279.8634 0001152  96.6487 263.4634 15.06407952172873
2,GENERATED VIA SPACE-TRACK.ORG API,2023-02-26T18:23:40,18 SPCS,STARLINK-1098,2020-001D,EARTH,TEME,UTC,SGP4,2023-02-26T12:32:26.446848,15.06401336,0.0001287,53.0532,276.8831,107.0308,253.0822,0,U,44917,999,17297,0.00018674,2.501e-05,0,6925.344,95.592,548.101,546.318,PAYLOAD,LARGE,US,2020-01-07,AFETR,,3841853,227003896,0 STARLINK-1098,1 44917U 20001D   23057.52252832  .00002501  00000-0  18674-3 0  9991,2 44917  53.0532 276.8831 0001287 107.0308 253.0822 15.06401336172974
